FENGYUN 1C DEB          
1 31819U 99025CHH 26195.77334265  .00000410  00000+0  16636-3 0  9996
2 31819  98.4868 186.8039 0088185  49.0992 311.7786 14.30569211997533
FENGYUN 1C DEB          
1 31820U 99025CHJ 26197.52890068  .00007134  00000+0  49459-3 0  9990
2 31820  98.9582  44.4658 0135207  35.6295 325.3857 14.98813324 14423
FENGYUN 1C DEB          
1 31821U 99025CHK 26197.89420159  .00008105  00000+0  16370-2 0  9995
2 31821  98.1534  79.8295 0200375  73.6037 288.7081 14.49674476967851
FENGYUN 1C DEB          
1 31823U 99025CHM 26197.31278750  .00005271  00000+0  87539-3 0  9999
2 31823  99.5155 323.2403 0034949 276.5461  83.1762 14.70298424998813
FENGYUN 1C DEB          
1 31825U 99025CHP 26198.20815745  .00000528  00000+0  22358-3 0  9999
2 31825  98.5958 197.3970 0166306  70.0776 291.8233 14.22187339986988
FENGYUN 1C DEB          
1 31826U 99025CHQ 26197.44169390  .00000286  00000+0  14501-3 0  9995
2 31826  98.6392 188.2395 0122364 287.5781 227.2260 14.19666302988746
FENGYUN 1C DEB          
1 31829U 99025CHT 26194.30717869  .00000193  00000+0  17417-3 0  9996
2 31829  98.8583 358.4583 0167486 305.4208 173.1766 13.88886136970982
FENGYUN 1C DEB          
1 31830U 99025CHU 26197.80233288  .00000626  00000+0  52204-3 0  9998
2 31830  99.1675 303.2177 0185974  97.1327  53.1230 13.84363513957282
FENGYUN 1C DEB          
1 31834U 99025CHY 26186.85528443  .00000719  00000+0  43263-3 0  9993
2 31834  98.3489  35.5807 0160333 216.4618 142.5547 14.03401707665871
FENGYUN 1C DEB          
1 31836U 99025CJA 26196.32047426  .00001544  00000+0  82747-3 0  9992
2 31836  98.6213 157.8333 0108586 226.3994 132.8129 14.11498425644295
FENGYUN 1C DEB          
1 31837U 99025CJB 26195.46471022  .00003881  00000+0  41534-3 0  9995
2 31837  98.0847 279.1409 0086630  42.9883 317.8057 14.86584971 15234
FENGYUN 1C DEB          
1 31838U 99025CJC 26194.92991034  .00000653  00000+0  31485-3 0  9994
2 31838  98.6978 247.6837 0037853 195.7888 288.6262 14.21706348676055
FENGYUN 1C DEB          
1 31841U 99025CJF 26196.69406894  .00001009  00000+0  42649-3 0  9999
2 31841  98.4396 355.5276 0303999  55.9412 319.7805 14.05473701623578
FENGYUN 1C DEB          
1 31843U 99025CJH 26198.02204914  .00001447  00000+0  92179-3 0  9998
2 31843  99.2921 125.6067 0629377 179.5435 180.6403 13.35943989675822
FENGYUN 1C DEB          
1 31844U 99025CJJ 26197.03286474  .00000670  00000+0  32071-3 0  9992
2 31844 100.3016 225.8803 0103286 121.5336 239.5973 14.20480699983889
FENGYUN 1C DEB          
1 31851U 99025CJR 26174.37811094  .00002008  00000+0  15580-2 0  9996
2 31851  98.7874  22.1027 0200908 118.9912 243.1545 13.84589353641326
FENGYUN 1C DEB          
1 31854U 99025CJU 26196.22406513  .00000528  00000+0  35822-3 0  9990
2 31854  98.8496 198.5912 0070237 262.8459  96.4718 14.03336809722808
FENGYUN 1C DEB          
1 31857U 99025CJX 26197.12976312  .00001075  00000+0  10120-2 0  9993
2 31857  96.1872 153.5602 0311690  42.3016 320.1726 13.62720551645623
FENGYUN 1C DEB          
1 31861U 99025CKB 26196.51034285  .00001536  00000+0  17071-2 0  9998
2 31861 102.3373  77.1400 0491931  98.2947 267.4236 13.31147227696243
FENGYUN 1C DEB          
1 31877U 99025CKC 26197.14982103  .00003318  00000+0  20526-3 0  9996
2 31877  98.9978 307.6020 0092400 294.2591  64.9000 15.07261832 22809
FENGYUN 1C DEB          
1 31878U 99025CKD 26198.13987726  .00004943  00000+0  48088-3 0  9991
2 31878  99.4544 168.1203 0074486 277.9829  81.2936 14.91104388 12829
FENGYUN 1C DEB          
1 31879U 99025CKE 26195.49192396  .00000435  00000+0  11409-3 0  9998
2 31879  99.6888 108.5173 0208102 135.8692 225.9311 14.43491498662936
FENGYUN 1C DEB          
1 31880U 99025CKF 26175.74922138  .00000507  00000+0  42642-3 0  9994
2 31880 100.0432 358.6012 0127183   2.9662 357.2220 13.89744598656741
FENGYUN 1C DEB          
1 31882U 99025CKH 26176.55778179  .00000865  00000+0  48082-3 0  9991
2 31882  98.9219 103.4423 0037623  34.5918 325.7691 14.13428416613883
FENGYUN 1C DEB          
1 31883U 99025CKJ 26197.30164948  .00001504  00000+0  23588-3 0  9996
2 31883  99.0352 141.4563 0121004 122.9297 238.3613 14.69674617 11286
FENGYUN 1C DEB          
1 31887U 99025CKN 26197.18788877  .00002665  00000+0  56056-3 0  9994
2 31887  99.5249 285.3374 0021909  87.3236 273.0467 14.60439814997508
FENGYUN 1C DEB          
1 31888U 99025CKP 26197.58319711  .00002076  00000+0  72751-3 0  9992
2 31888  99.1592 142.0358 0017715 314.9607  45.0139 14.36183919987336
FENGYUN 1C DEB          
1 31890U 99025CKR 26197.28710142  .00000017  00000+0  33098-4 0  9990
2 31890  98.7124 207.1878 0072293 352.6299   7.3803 14.10225187671901
FENGYUN 1C DEB          
1 31891U 99025CKS 26197.99368747  .00000134  00000+0  18067-3 0  9997
2 31891  99.3922 211.8389 0223693 345.7479  13.7422 13.66413780953638
FENGYUN 1C DEB          
1 31892U 99025CKT 26183.36285506  .00001423  00000+0  35638-3 0  9990
2 31892  99.2972  16.0196 0197583  55.1968 306.7635 14.42165866678119
FENGYUN 1C DEB          
1 31893U 99025CKU 26197.79144757  .00001005  00000+0  16235-3 0  9993
2 31893  99.0939 183.3229 0173865  25.2624  94.2133 14.64573835 15547
FENGYUN 1C DEB          
1 31895U 99025CKW 26196.86428762  .00001014  00000+0  89638-3 0  9990
2 31895  99.0779 221.0310 0224337  20.5529 340.4474 13.76507693648553
FENGYUN 1C DEB          
1 31899U 99025CLA 26197.18277414  .00000308  00000+0  29885-3 0  9999
2 31899 102.0824 325.8028 0177931   0.6861 359.4497 13.84087420705444
FENGYUN 1C DEB          
1 31901U 99025CLC 26192.70415542  .00000072  00000+0  79539-4 0  9992
2 31901  98.6261 144.7978 0130889 326.4534  32.8390 13.94257547663472
FENGYUN 1C DEB          
1 31902U 99025CLD 26191.41731574  .00000240  00000+0  10657-3 0  9998
2 31902  98.5274 169.7994 0178206 258.2063 256.2540 14.23620331677747
FENGYUN 1C DEB          
1 31903U 99025CLE 26197.28392946  .00001464  00000+0  27224-3 0  9993
2 31903  99.2782 216.7631 0127534 102.6981 258.8508 14.61903077  5278
FENGYUN 1C DEB          
1 31905U 99025CLG 26197.44732285  .00000473  00000+0  15368-3 0  9992
2 31905  99.1675 191.4342 0193480 186.3924 173.4786 14.33984952997154
FENGYUN 1C DEB          
1 31906U 99025CLH 26196.32953350  .00001729  00000+0  72296-3 0  9995
2 31906  98.7007 332.7694 0053572 208.9532 180.9227 14.26632902981874
FENGYUN 1C DEB          
1 31910U 99025CLM 26196.76300137  .00001257  00000+0  24975-3 0  9994
2 31910  97.6546 203.3167 0221090 206.9625 151.9946 14.49445049674825
FENGYUN 1C DEB          
1 31913U 99025CLQ 26195.55905608  .00002692  00000+0  18022-2 0  9996
2 31913  99.2878 122.2701 0190670  89.1683 273.1317 13.93299034588621
FENGYUN 1C DEB          
1 31914U 99025CLR 26197.48932453  .00000263  00000+0  59259-4 0  9990
2 31914  98.9985  82.8085 0182030 135.5469 226.0500 14.56043169716127
FENGYUN 1C DEB          
1 31915U 99025CLS 26197.28976318  .00000653  00000+0  33009-3 0  9994
2 31915  98.6194 213.5443 0101058  11.9220 348.4314 14.16877366671594
FENGYUN 1C DEB          
1 31916U 99025CLT 26195.55261014  .00002113  00000+0  68808-3 0  9991
2 31916  99.3293 302.2471 0144156 197.3746 162.2475 14.34185499675906
FENGYUN 1C DEB          
1 31917U 99025CLU 26195.93514036  .00000911  00000+0  25656-3 0  9997
2 31917  98.3740 188.3254 0188504  11.5442  17.6278 14.38375106995000
FENGYUN 1C DEB          
1 31919U 99025CLW 26193.33450443  .00000399  00000+0  11928-3 0  9999
2 31919  99.1289 356.5468 0100453 298.8249 177.5853 14.46350214  1406
FENGYUN 1C DEB          
1 31921U 99025CLY 26197.67514005  .00000719  00000+0  67463-3 0  9999
2 31921  99.3274  90.6380 0206047  57.1083 304.9710 13.75773670952759
FENGYUN 1C DEB          
1 31922U 99025CLZ 26197.94035838  .00001229  00000+0  97244-3 0  9999
2 31922  98.8177 182.1383 0159712 157.6553 260.9642 13.87457046960146
FENGYUN 1C DEB          
1 31923U 99025CMA 26197.65733196  .00000060  00000+0  99542-4 0  9996
2 31923  98.4275 265.3586 0301956 101.3426 262.1798 13.55407463665595
FENGYUN 1C DEB          
1 31924U 99025CMB 26197.84816574  .00001208  00000+0  12072-2 0  9996
2 31924  98.4155 331.4746 0270402 243.6687 113.6460 13.64644938944143
FENGYUN 1C DEB          
1 31926U 99025CMD 26197.25730194  .00001855  00000+0  68908-3 0  9994
2 31926  98.9585 304.3844 0035739 350.0638   9.9834 14.33084002983126
FENGYUN 1C DEB          
1 31929U 99025CME 26191.18028031  .00000775  00000+0  27657-3 0  9999
2 31929  98.8177 329.7177 0073855 157.1128 203.3377 14.35535778736509
FENGYUN 1C DEB          
1 31931U 99025CMG 26195.96707846  .00000505  00000+0  54484-3 0  9999
2 31931  97.8220 104.1071 0424654  72.4303 292.2750 13.42927062680978
FENGYUN 1C DEB          
1 31937U 99025CMN 26191.18048830  .00002405  00000+0  25749-3 0  9999
2 31937  99.2626 317.6059 0153851   3.6056 356.6223 14.81657386691678
FENGYUN 1C DEB          
1 31938U 99025CMP 26198.12086963  .00003278  00000+0  22761-3 0  9990
2 31938  98.9004 264.7590 0146105  85.2358 276.5528 14.98154574 23667
FENGYUN 1C DEB          
1 31944U 99025CMV 26197.69005965  .00000479  00000+0  25499-3 0  9992
2 31944  99.2282 356.2574 0152257 119.0991 300.1100 14.12368958659584
FENGYUN 1C DEB          
1 31945U 99025CMW 26196.17611376  .00001205  00000+0  55409-3 0  9996
2 31945  98.9539 280.6298 0058950  36.2207 324.2939 14.22179095982426
FENGYUN 1C DEB          
1 31946U 99025CMX 26184.89046845  .00003210  00000+0  15492-2 0  9991
2 31946  98.8870 250.0777 0084316 187.7905 172.1966 14.17480095668856
FENGYUN 1C DEB          
1 31948U 99025CMZ 26197.69128330  .00001339  00000+0  53952-3 0  9999
2 31948  99.3814 279.4890 0025265 124.7277  29.5049 14.29718427981125
FENGYUN 1C DEB          
1 31949U 99025CNA 26189.71067251  .00000478  00000+0  23899-3 0  9998
2 31949  98.5610 172.4466 0125078 334.1889  25.3079 14.17226623984502
FENGYUN 1C DEB          
1 31952U 99025CND 26197.33001634  .00000464  00000+0  11290-3 0  9999
2 31952  98.9794 334.6682 0112833   1.3932 358.7555 14.54475897  3315
